CORVUS BC1              
1 42847U 17042Y   18196.28607768  .00000214  00000-0  26476-4 0  9994
2 42847  97.5948  98.1962 0010786 100.4619 259.7816 14.91930699 54555
SILU-1 (SILKROAD 1)     
1 42903U 17021F   18196.36493234  .00021976  00000-0  15935-3 0  9999
2 42903  42.7764 157.3696 0011631 144.9031 348.2476 15.72872369 54363
MIRATA                  
1 43015U 17073C   18195.84312690  .00000497  00000-0  44747-4 0  9998
2 43015  97.7042 125.7029 0257809 181.1662 178.8982 14.78179765 35226
MAKERSAT 0              
1 43016U 17073D   18195.76016116  .00000358  00000-0  33644-4 0  9994
2 43016  97.7072 125.7501 0259240 181.5010 178.5453 14.78179477 35205
ASTERIA                 
1 43020U 98067NH  18196.46591309  .00006065  00000-0  80111-4 0  9993
2 43020  51.6397 232.2227 0001970 293.7114  66.3672 15.59889861 36904
DELLINGR (RBLE)         
1 43021U 98067NJ  18196.48631814  .00004031  00000-0  59576-4 0  9994
2 43021  51.6381 233.8278 0001795 280.4066  79.6723 15.57876083 36886
OSIRIS-3U               
1 43027U 98067NL  18196.43700519  .00014234  00000-0  14291-3 0  9994
2 43027  51.6360 227.4763 0002412 297.9452  62.1299 15.65772330 36846
AEROCUBE 7B             
1 43042U 17071F   18195.78345179  .00001751  00000-0  54772-4 0  9990
2 43042  51.6386 267.0618 0005200   9.2945 350.8134 15.39013260 33853
AEROCUBE 7C             
1 43043U 17071G   18196.23791724  .00001552  00000-0  49719-4 0  9997
2 43043  51.6388 264.8511 0005292  13.1186 346.9935 15.39017213 33896
CHEFSAT                 
1 43044U 17071H   18195.84027234  .00003220  00000-0  89262-4 0  9993
2 43044  51.6393 265.9704 0005270  10.0883 350.0207 15.40020726 33843
ASGARDIA 1              
1 43049U 17071N   18195.63192470  .00001788  00000-0  55481-4 0  9993
2 43049  51.6393 267.5618 0002859  33.2220 326.8943 15.39144238 33797
ISARA                   
1 43050U 17071P   18195.84510247  .00002727  00000-0  77575-4 0  9996
2 43050  51.6386 265.9974 0002775  28.3338 331.7797 15.39836157 33846
FAUNA                   
1 43052U 17071R   18196.20228940  .00002219  00000-0  66086-4 0  9996
2 43052  51.6392 264.6290 0002781  31.5829 328.5321 15.39288178 33885
CORVUS BC3              
1 43118U 18004H   18196.14429670  .00000633  00000-0  30584-4 0  9994
2 43118  97.5314 258.7875 0010664   6.5719 353.5655 15.22293688 27967
MICROMAS-2A             
1 43131U 18004W   18195.89668255  .00001499  00000-0  66969-4 0  9991
2 43131  97.5323 258.6721 0009903  11.4374 348.7086 15.22897215 27934
GOMX4-B                 
1 43196U 18015E   18196.12129443  .00000324  00000-0  16379-4 0  9998
2 43196  97.3504 324.4811 0020427  61.4820 298.8469 15.23673375 24781
GOMX4-A                 
1 43197U 18015F   18196.39397572  .00000419  00000-0  20304-4 0  9996
2 43197  97.3506 324.7520 0021024  61.1472  13.6961 15.23687617 24838
UBAKUSAT                
1 43466U 98067NP  18196.49757476  .00006779  00000-0  10175-3 0  9993
2 43466  51.6381 236.8977 0000427  22.6716 337.4295 15.56176664 10100
1KUNS-PF                
1 43467U 98067NQ  18196.50010837  .00005080  00000-0  78584-4 0  9992
2 43467  51.6385 236.9162 0001989 240.5335 119.5458 15.55969336 10110
BATSU-CS1 (IRAZU)       
1 43468U 98067NR  18195.52882002  .00009237  00000-0  13505-3 0  9994
2 43468  51.6380 241.6780 0000529  28.1949 331.9071 15.56393199109945
